start=new Date('2022-08-08T00:00:00.000Z').valueOf();
sats=[{"REF_FRAME":"TEME","TLE_LINE2":"2 45182  53.0534 146.9243 0001875  73.2408 286.8786 15.06407019137533","TIME_SYSTEM":"UTC","MEAN_MOTION":"15.06407019","LAUNCH_DATE":"2020-02-17","CENTER_NAME":"EARTH","PERIOD":"95.592","NORAD_CAT_ID":"45182","APOAPSIS":"548.491","OBJECT_TYPE":"PAYLOAD","EPHEMERIS_TYPE":"0","RA_OF_ASC_NODE":"146.9243","BSTAR":"0.00011427000000","SITE":"AFETR","ELEMENT_SET_NO":"999","FILE":"3531552","TLE_LINE1":"1 45182U 20012E   22219.80320491  .00001421  00000-0  11427-3 0  9994","ARG_OF_PERICENTER":"73.2408","COUNTRY_CODE":"US","INCLINATION":"53.0534","OBJECT_NAME":"STARLINK-1201","DECAY_DATE":null,"REV_AT_EPOCH":"13753","RCS_SIZE":"LARGE","SEMIMAJOR_AXIS":"6925.327","MEAN_MOTION_DOT":"0.00001421","MEAN_MOTION_DDOT":"0.0000000000000","OBJECT_ID":"2020-012E","CLASSIFICATION_TYPE":"U","MEAN_ELEMENT_THEORY":"SGP4","PERIAPSIS":"545.894","EPOCH":"2022-08-07T19:16:36.904224","GP_ID":"209791907","ECCENTRICITY":"0.00018750","MEAN_ANOMALY":"286.8786"},{"TLE_LINE1":"1 45183U 20012F   22219.81979442 -.00000136  00000-0  97466-5 0  9994","FILE":"3531552","REV_AT_EPOCH":"13741","DECAY_DATE":null,"COUNTRY_CODE":"US","INCLINATION":"53.0554","OBJECT_NAME":"STARLINK-1202","ARG_OF_PERICENTER":"71.5210","CLASSIFICATION_TYPE":"U","OBJECT_ID":"2020-012F","MEAN_MOTION_DDOT":"0.0000000000000","MEAN_MOTION_DOT":"-0.00000136","SEMIMAJOR_AXIS":"6925.371","RCS_SIZE":"LARGE","GP_ID":"209790671","ECCENTRICITY":"0.00015990","MEAN_ANOMALY":"288.5952","EPOCH":"2022-08-07T19:40:30.237888","PERIAPSIS":"546.129","MEAN_ELEMENT_THEORY":"SGP4","TLE_LINE2":"2 45183  53.0554 166.8621 0001599  71.5210 288.5952 15.06392705137418","REF_FRAME":"TEME","MEAN_MOTION":"15.06392705","TIME_SYSTEM":"UTC","OBJECT_TYPE":"PAYLOAD","APOAPSIS":"548.343","NORAD_CAT_ID":"45183","CENTER_NAME":"EARTH","PERIOD":"95.593","LAUNCH_DATE":"2020-02-17","ELEMENT_SET_NO":"999","BSTAR":"0.00000974660000","SITE":"AFETR","EPHEMERIS_TYPE":"0","RA_OF_ASC_NODE":"166.8621"},{"TLE_LINE2":"2 45184  53.0547 149.5827 0002052  72.1485 287.9728 15.06397304136630","REF_FRAME":"TEME","MEAN_MOTION":"15.06397304","TIME_SYSTEM":"UTC","OBJECT_TYPE":"PAYLOAD","NORAD_CAT_ID":"45184","APOAPSIS":"548.643","CENTER_NAME":"EARTH","PERIOD":"95.592","LAUNCH_DATE":"2020-02-17","ELEMENT_SET_NO":"999","BSTAR":"-0.00002547300000","SITE":"AFETR","EPHEMERIS_TYPE":"0","RA_OF_ASC_NODE":"149.5827","TLE_LINE1":"1 45184U 20012G   22219.21345938 -.00000661  00000-0 -25473-4 0  9998","FILE":"3531314","REV_AT_EPOCH":"13663","DECAY_DATE":null,"OBJECT_NAME":"STARLINK-1205","COUNTRY_CODE":"US","INCLINATION":"53.0547","ARG_OF_PERICENTER":"72.1485","CLASSIFICATION_TYPE":"U","OBJECT_ID":"2020-012G","MEAN_MOTION_DDOT":"0.0000000000000","SEMIMAJOR_AXIS":"6925.357","MEAN_MOTION_DOT":"-0.00000661","RCS_SIZE":"LARGE","GP_ID":"209760003","MEAN_ANOMALY":"287.9728","ECCENTRICITY":"0.00020520","EPOCH":"2022-08-07T05:07:22.890432","PERIAPSIS":"545.801","MEAN_ELEMENT_THEORY":"SGP4"},{"REF_FRAME":"TEME","TLE_LINE2":"2 45185  53.0552 169.2727 0001725  74.2054 285.9125 15.06395436137270","MEAN_MOTION":"15.06395436","TIME_SYSTEM":"UTC","NORAD_CAT_ID":"45185","APOAPSIS":"548.422","OBJECT_TYPE":"PAYLOAD","LAUNCH_DATE":"2020-02-17","PERIOD":"95.592","CENTER_NAME":"EARTH","ELEMENT_SET_NO":"999","RA_OF_ASC_NODE":"169.2727","EPHEMERIS_TYPE":"0","SITE":"AFETR","BSTAR":"0.00003329600000","TLE_LINE1":"1 45185U 20012H   22219.28164955  .00000214  00000-0  33296-4 0  9998","FILE":"3531314","REV_AT_EPOCH":"13727","DECAY_DATE":null,"INCLINATION":"53.0552","COUNTRY_CODE":"US","OBJECT_NAME":"STARLINK-1216","ARG_OF_PERICENTER":"74.2054","OBJECT_ID":"2020-012H","MEAN_MOTION_DDOT":"0.0000000000000","CLASSIFICATION_TYPE":"U","RCS_SIZE":"LARGE","MEAN_MOTION_DOT":"0.00000214","SEMIMAJOR_AXIS":"6925.363","EPOCH":"2022-08-07T06:45:34.521120","GP_ID":"209760253","MEAN_ANOMALY":"285.9125","ECCENTRICITY":"0.00017250","PERIAPSIS":"546.033","MEAN_ELEMENT_THEORY":"SGP4"},{"TIME_SYSTEM":"UTC","MEAN_MOTION":"15.06402405","TLE_LINE2":"2 45186  53.0553 166.8272 0001695  68.5689 291.5481 15.06402405137358","REF_FRAME":"TEME","ELEMENT_SET_NO":"999","SITE":"AFETR","BSTAR":"0.00010925000000","EPHEMERIS_TYPE":"0","RA_OF_ASC_NODE":"166.8272","OBJECT_TYPE":"PAYLOAD","NORAD_CAT_ID":"45186","APOAPSIS":"548.380","PERIOD":"95.592","CENTER_NAME":"EARTH","LAUNCH_DATE":"2020-02-17","DECAY_DATE":null,"REV_AT_EPOCH":"13735","ARG_OF_PERICENTER":"68.5689","COUNTRY_CODE":"US","OBJECT_NAME":"STARLINK-1224","INCLINATION":"53.0553","FILE":"3531552","TLE_LINE1":"1 45186U 20012J   22219.82716057  .00001346  00000-0  10925-3 0  9995","GP_ID":"209791407","MEAN_ANOMALY":"291.5481","ECCENTRICITY":"0.00016950","EPOCH":"2022-08-07T19:51:06.673248","MEAN_ELEMENT_THEORY":"SGP4","PERIAPSIS":"546.032","CLASSIFICATION_TYPE":"U","MEAN_MOTION_DDOT":"0.0000000000000","OBJECT_ID":"2020-012J","SEMIMAJOR_AXIS":"6925.341","MEAN_MOTION_DOT":"0.00001346","RCS_SIZE":"LARGE"},{"TLE_LINE2":"2 45187  53.0542 169.7897 0001710  64.7260 295.3906 15.06396634137308","REF_FRAME":"TEME","TIME_SYSTEM":"UTC","MEAN_MOTION":"15.06396634","CENTER_NAME":"EARTH","PERIOD":"95.592","LAUNCH_DATE":"2020-02-17","OBJECT_TYPE":"PAYLOAD","NORAD_CAT_ID":"45187","APOAPSIS":"548.408","SITE":"AFETR","BSTAR":"-0.00003386500000","RA_OF_ASC_NODE":"169.7897","EPHEMERIS_TYPE":"0","ELEMENT_SET_NO":"999","FILE":"3531314","TLE_LINE1":"1 45187U 20012K   22219.16738555 -.00000786  00000-0 -33865-4 0  9998","ARG_OF_PERICENTER":"64.7260","OBJECT_NAME":"STARLINK-1225","COUNTRY_CODE":"US","INCLINATION":"53.0542","DECAY_DATE":null,"REV_AT_EPOCH":"13730","MEAN_MOTION_DOT":"-0.00000786","SEMIMAJOR_AXIS":"6925.359","RCS_SIZE":"LARGE","CLASSIFICATION_TYPE":"U","MEAN_MOTION_DDOT":"0.0000000000000","OBJECT_ID":"2020-012K","MEAN_ELEMENT_THEORY":"SGP4","PERIAPSIS":"546.040","GP_ID":"209761245","MEAN_ANOMALY":"295.3906","ECCENTRICITY":"0.00017100","EPOCH":"2022-08-07T04:01:02.111520"},{"REF_FRAME":"TEME","TLE_LINE2":"2 45188  53.0539 127.2737 0001617  72.4159 287.7006 15.06388813137908","MEAN_MOTION":"15.06388813","TIME_SYSTEM":"UTC","APOAPSIS":"548.368","NORAD_CAT_ID":"45188","OBJECT_TYPE":"PAYLOAD","LAUNCH_DATE":"2020-02-17","CENTER_NAME":"EARTH","PERIOD":"95.593","ELEMENT_SET_NO":"999","EPHEMERIS_TYPE":"0","RA_OF_ASC_NODE":"127.2737","SITE":"AFETR","BSTAR":"0.00006926100000","TLE_LINE1":"1 45188U 20012L   22219.72765261  .00000750  00000-0  69261-4 0  9993","FILE":"3531552","REV_AT_EPOCH":"13790","DECAY_DATE":null,"COUNTRY_CODE":"US","INCLINATION":"53.0539","OBJECT_NAME":"STARLINK-1228","ARG_OF_PERICENTER":"72.4159","OBJECT_ID":"2020-012L","MEAN_MOTION_DDOT":"0.0000000000000","CLASSIFICATION_TYPE":"U","RCS_SIZE":"LARGE","SEMIMAJOR_AXIS":"6925.383","MEAN_MOTION_DOT":"0.00000750","EPOCH":"2022-08-07T17:27:49.185504","GP_ID":"209790922","MEAN_ANOMALY":"287.7006","ECCENTRICITY":"0.00016170","PERIAPSIS":"546.128","MEAN_ELEMENT_THEORY":"SGP4"},{"DECAY_DATE":null,"REV_AT_EPOCH":"13463","ARG_OF_PERICENTER":"80.0261","COUNTRY_CODE":"US","INCLINATION":"53.0554","OBJECT_NAME":"STARLINK-1230","FILE":"3531552","TLE_LINE1":"1 45189U 20012M   22219.83453371  .00001781  00000-0  13842-3 0  9990","GP_ID":"209791668","ECCENTRICITY":"0.00017080","MEAN_ANOMALY":"280.0921","EPOCH":"2022-08-07T20:01:43.712544","MEAN_ELEMENT_THEORY":"SGP4","PERIAPSIS":"546.031","CLASSIFICATION_TYPE":"U","MEAN_MOTION_DDOT":"0.0000000000000","OBJECT_ID":"2020-012M","MEAN_MOTION_DOT":"0.00001781","SEMIMAJOR_AXIS":"6925.349","RCS_SIZE":"LARGE","TIME_SYSTEM":"UTC","MEAN_MOTION":"15.06399814","TLE_LINE2":"2 45189  53.0554 166.7991 0001708  80.0261 280.0921 15.06399814134638","REF_FRAME":"TEME","ELEMENT_SET_NO":"999","BSTAR":"0.00013842000000","SITE":"AFETR","EPHEMERIS_TYPE":"0","RA_OF_ASC_NODE":"166.7991","OBJECT_TYPE":"PAYLOAD","NORAD_CAT_ID":"45189","APOAPSIS":"548.397","CENTER_NAME":"EARTH","PERIOD":"95.592","LAUNCH_DATE":"2020-02-17"},{"DECAY_DATE":null,"REV_AT_EPOCH":"13787","ARG_OF_PERICENTER":"69.2197","INCLINATION":"53.0556","COUNTRY_CODE":"US","OBJECT_NAME":"STARLINK-1234","FILE":"3531552","TLE_LINE1":"1 45190U 20012N   22219.85296889  .00001582  00000-0  12512-3 0  9995","GP_ID":"209791908","MEAN_ANOMALY":"290.9042","ECCENTRICITY":"0.00023340","EPOCH":"2022-08-07T20:28:16.512096","MEAN_ELEMENT_THEORY":"SGP4","PERIAPSIS":"545.587","CLASSIFICATION_TYPE":"U","MEAN_MOTION_DDOT":"0.0000000000000","OBJECT_ID":"2020-012N","MEAN_MOTION_DOT":"0.00001582","SEMIMAJOR_AXIS":"6925.339","RCS_SIZE":"LARGE","TIME_SYSTEM":"UTC","MEAN_MOTION":"15.06403270","TLE_LINE2":"2 45190  53.0556 126.7183 0002334  69.2197 290.9042 15.06403270137879","REF_FRAME":"TEME","ELEMENT_SET_NO":"999","SITE":"AFETR","BSTAR":"0.00012512000000","RA_OF_ASC_NODE":"126.7183","EPHEMERIS_TYPE":"0","OBJECT_TYPE":"PAYLOAD","APOAPSIS":"548.820","NORAD_CAT_ID":"45190","PERIOD":"95.592","CENTER_NAME":"EARTH","LAUNCH_DATE":"2020-02-17"},{"TLE_LINE2":"2 45191  53.0542 166.7610 0001938  74.3648 285.7555 15.06388416134626","REF_FRAME":"TEME","TIME_SYSTEM":"UTC","MEAN_MOTION":"15.06388416","CENTER_NAME":"EARTH","PERIOD":"95.593","LAUNCH_DATE":"2020-02-17","OBJECT_TYPE":"PAYLOAD","NORAD_CAT_ID":"45191","APOAPSIS":"548.591","BSTAR":"0.00015931000000","SITE":"AFETR","EPHEMERIS_TYPE":"0","RA_OF_ASC_NODE":"166.7610","ELEMENT_SET_NO":"999","FILE":"3531552","TLE_LINE1":"1 45191U 20012P   22219.84194334  .00002091  00000-0  15931-3 0  9991","ARG_OF_PERICENTER":"74.3648","COUNTRY_CODE":"US","OBJECT_NAME":"STARLINK-1236","INCLINATION":"53.0542","DECAY_DATE":null,"REV_AT_EPOCH":"13462","MEAN_MOTION_DOT":"0.00002091","SEMIMAJOR_AXIS":"6925.384","RCS_SIZE":"LARGE","CLASSIFICATION_TYPE":"U","MEAN_MOTION_DDOT":"0.0000000000000","OBJECT_ID":"2020-012P","MEAN_ELEMENT_THEORY":"SGP4","PERIAPSIS":"545.907","GP_ID":"209790672","ECCENTRICITY":"0.00019380","MEAN_ANOMALY":"285.7555","EPOCH":"2022-08-07T20:12:23.904576"}];
